{
  "type": "FeatureCollection",
  "features": [
    {
      "type": "Feature",
      "properties": {
        "norad_id": 66570,
        "name": "STARLINK-35834",
        "group": "last-30-days",
        "lat": 21.215179664687437,
        "lon": 142.08407338062156,
        "alt_km": 412.50889492293845,
        "timestamp": "2025-12-13T08:49:14.456410+00:00",
        "meta_object_name": "STARLINK-35834",
        "meta_object_id": "2025-268P",
        "meta_epoch": "2025-12-12T20:00:01.999872",
        "meta_mean_motion": 15.50649758,
        "meta_eccentricity": 0.0001444,
        "meta_inclination": 43.0002,
        "meta_ra_of_asc_node": 120.5913,
        "meta_arg_of_pericenter": 260.297,
        "meta_mean_anomaly": 26.4566,
        "meta_ephemeris_type": 0,
        "meta_classification_type": "U",
        "meta_norad_cat_id": 66570,
        "meta_element_set_no": 999,
        "meta_rev_at_epoch": 468,
        "meta_bstar": -0.0023172141,
        "meta_mean_motion_dot": -0.00134314,
        "meta_mean_motion_ddot": 0,
        "tle_line1": "1 66570U 25268P   25346.83335648 -.00134314  00000+0 -23172-2 0  9991",
        "tle_line2": "2 66570  43.0002 120.5913 0001444 260.2970  26.4566 15.50649758  4682"
      },
      "geometry": {
        "type": "Point",
        "coordinates": [
          142.08407338062156,
          21.215179664687437
        ]
      }
    },
    {
      "type": "Feature",
      "properties": {
        "norad_id": 66571,
        "name": "STARLINK-35836",
        "group": "last-30-days",
        "lat": 22.40347283649588,
        "lon": 143.7175657544575,
        "alt_km": 411.94920149769587,
        "timestamp": "2025-12-13T08:49:14.456422+00:00",
        "meta_object_name": "STARLINK-35836",
        "meta_object_id": "2025-268Q",
        "meta_epoch": "2025-12-12T20:00:01.999872",
        "meta_mean_motion": 15.50592722,
        "meta_eccentricity": 0.00017082,
        "meta_inclination": 43.0002,
        "meta_ra_of_asc_node": 120.5864,
        "meta_arg_of_pericenter": 283.1071,
        "meta_mean_anomaly": 5.591,
        "meta_ephemeris_type": 0,
        "meta_classification_type": "U",
        "meta_norad_cat_id": 66571,
        "meta_element_set_no": 999,
        "meta_rev_at_epoch": 468,
        "meta_bstar": -0.00085406017,
        "meta_mean_motion_dot": -0.00050151,
        "meta_mean_motion_ddot": 0,
        "tle_line1": "1 66571U 25268Q   25346.83335648 -.00050151  00000+0 -85406-3 0  9997",
        "tle_line2": "2 66571  43.0002 120.5864 0001708 283.1071   5.5910 15.50592722  4686"
      },
      "geometry": {
        "type": "Point",
        "coordinates": [
          143.7175657544575,
          22.40347283649588
        ]
      }
    },
    {
      "type": "Feature",
      "properties": {
        "norad_id": 66572,
        "name": "STARLINK-35870",
        "group": "last-30-days",
        "lat": 23.56602332154939,
        "lon": 145.36731994531354,
        "alt_km": 412.03113000798385,
        "timestamp": "2025-12-13T08:49:14.456433+00:00",
        "meta_object_name": "STARLINK-35870",
        "meta_object_id": "2025-268R",
        "meta_epoch": "2025-12-12T20:00:01.999872",
        "meta_mean_motion": 15.50613092,
        "meta_eccentricity": 0.00016071,
        "meta_inclination": 43.0002,
        "meta_ra_of_asc_node": 120.5827,
        "meta_arg_of_pericenter": 272.0893,
        "meta_mean_anomaly": 18.5258,
        "meta_ephemeris_type": 0,
        "meta_classification_type": "U",
        "meta_norad_cat_id": 66572,
        "meta_element_set_no": 999,
        "meta_rev_at_epoch": 468,
        "meta_bstar": -0.0015162117,
        "meta_mean_motion_dot": -0.00088402,
        "meta_mean_motion_ddot": 0,
        "tle_line1": "1 66572U 25268R   25346.83335648 -.00088402  00000+0 -15162-2 0  9999",
        "tle_line2": "2 66572  43.0002 120.5827 0001607 272.0893  18.5258 15.50613092  4686"
      },
      "geometry": {
        "type": "Point",
        "coordinates": [
          145.36731994531354,
          23.56602332154939
        ]
      }
    },
    {
      "type": "Feature",
      "properties": {
        "norad_id": 66573,
        "name": "STARLINK-35650",
        "group": "last-30-days",
        "lat": 24.7283433722667,
        "lon": 147.0702779109505,
        "alt_km": 411.40560753618047,
        "timestamp": "2025-12-13T08:49:14.456443+00:00",
        "meta_object_name": "STARLINK-35650",
        "meta_object_id": "2025-268S",
        "meta_epoch": "2025-12-12T20:00:01.999872",
        "meta_mean_motion": 15.50494369,
        "meta_eccentricity": 0.00014639,
        "meta_inclination": 43.0002,
        "meta_ra_of_asc_node": 120.5766,
        "meta_arg_of_pericenter": 278.9023,
        "meta_mean_anomaly": 13.6688,
        "meta_ephemeris_type": 0,
        "meta_classification_type": "U",
        "meta_norad_cat_id": 66573,
        "meta_element_set_no": 999,
        "meta_rev_at_epoch": 468,
        "meta_bstar": 0.0020870866,
        "meta_mean_motion_dot": 0.00123677,
        "meta_mean_motion_ddot": 0,
        "tle_line1": "1 66573U 25268S   25346.83335648  .00123677  00000+0  20871-2 0  9995",
        "tle_line2": "2 66573  43.0002 120.5766 0001463 278.9023  13.6688 15.50494369  4686"
      },
      "geometry": {
        "type": "Point",
        "coordinates": [
          147.0702779109505,
          24.7283433722667
        ]
      }
    },
    {
      "type": "Feature",
      "properties": {
        "norad_id": 66574,
        "name": "STARLINK-35812",
        "group": "last-30-days",
        "lat": 25.838774119940254,
        "lon": 148.75599845326403,
        "alt_km": 411.6516123229112,
        "timestamp": "2025-12-13T08:49:14.456455+00:00",
        "meta_object_name": "STARLINK-35812",
        "meta_object_id": "2025-268T",
        "meta_epoch": "2025-12-12T20:00:01.999872",
        "meta_mean_motion": 15.50625026,
        "meta_eccentricity": 0.00014264,
        "meta_inclination": 43.0003,
        "meta_ra_of_asc_node": 120.5714,
        "meta_arg_of_pericenter": 272.467,
        "meta_mean_anomaly": 21.9696,
        "meta_ephemeris_type": 0,
        "meta_classification_type": "U",
        "meta_norad_cat_id": 66574,
        "meta_element_set_no": 999,
        "meta_rev_at_epoch": 468,
        "meta_bstar": -0.0017022193,
        "meta_mean_motion_dot": -0.0009911,
        "meta_mean_motion_ddot": 0,
        "tle_line1": "1 66574U 25268T   25346.83335648 -.00099110  00000+0 -17022-2 0  9996",
        "tle_line2": "2 66574  43.0003 120.5714 0001426 272.4670  21.9696 15.50625026  4684"
      },
      "geometry": {
        "type": "Point",
        "coordinates": [
          148.75599845326403,
          25.838774119940254
        ]
      }
    },
    {
      "type": "Feature",
      "properties": {
        "norad_id": 66575,
        "name": "STARLINK-35810",
        "group": "last-30-days",
        "lat": 26.947728795865853,
        "lon": 150.50484239722834,
        "alt_km": 411.23742216328174,
        "timestamp": "2025-12-13T08:49:14.456465+00:00",
        "meta_object_name": "STARLINK-35810",
        "meta_object_id": "2025-268U",
        "meta_epoch": "2025-12-12T20:00:01.999872",
        "meta_mean_motion": 15.5059521,
        "meta_eccentricity": 0.00015191,
        "meta_inclination": 43.0002,
        "meta_ra_of_asc_node": 120.5675,
        "meta_arg_of_pericenter": 287.5356,
        "meta_mean_anomaly": 8.8288,
        "meta_ephemeris_type": 0,
        "meta_classification_type": "U",
        "meta_norad_cat_id": 66575,
        "meta_element_set_no": 999,
        "meta_rev_at_epoch": 468,
        "meta_bstar": -0.00091983174,
        "meta_mean_motion_dot": -0.00053964,
        "meta_mean_motion_ddot": 0,
        "tle_line1": "1 66575U 25268U   25346.83335648 -.00053964  00000+0 -91983-3 0  9993",
        "tle_line2": "2 66575  43.0002 120.5675 0001519 287.5356   8.8288 15.50595210  4683"
      },
      "geometry": {
        "type": "Point",
        "coordinates": [
          150.50484239722834,
          26.947728795865853
        ]
      }
    },
    {
      "type": "Feature",
      "properties": {
        "norad_id": 66576,
        "name": "STARLINK-35814",
        "group": "last-30-days",
        "lat": 28.02978388174141,
        "lon": 152.27837757490792,
        "alt_km": 411.3370035506514,
        "timestamp": "2025-12-13T08:49:14.456475+00:00",
        "meta_object_name": "STARLINK-35814",
        "meta_object_id": "2025-268V",
        "meta_epoch": "2025-12-12T20:00:01.999872",
        "meta_mean_motion": 15.50628497,
        "meta_eccentricity": 0.00013959,
        "meta_inclination": 43.0003,
        "meta_ra_of_asc_node": 120.5622,
        "meta_arg_of_pericenter": 272.7361,
        "meta_mean_anomaly": 25.5307,
        "meta_ephemeris_type": 0,
        "meta_classification_type": "U",
        "meta_norad_cat_id": 66576,
        "meta_element_set_no": 999,
        "meta_rev_at_epoch": 468,
        "meta_bstar": -0.0017754638,
        "meta_mean_motion_dot": -0.00103318,
        "meta_mean_motion_ddot": 0,
        "tle_line1": "1 66576U 25268V   25346.83335648 -.00103318  00000+0 -17755-2 0  9997",
        "tle_line2": "2 66576  43.0003 120.5622 0001395 272.7361  25.5307 15.50628497  4683"
      },
      "geometry": {
        "type": "Point",
        "coordinates": [
          152.27837757490792,
          28.02978388174141
        ]
      }
    }
  ]
}